{"type": "FeatureCollection", "features": [ {"type": "Feature", "properties": {"norad_id": 30146, "name": "FENGYUN 1C DEB", "group": "fengyun-1c-debris", "lat": 17.30778196366161, "lon": -29.7682949705826, "alt_km": 845.5430899159692, "timestamp": "2025-12-14T07:33:19.751759+00:00", "meta": {"OBJECT_NAME": "FENGYUN 1C DEB", "OBJECT_ID": "1999-025TB", "EPOCH": "2025-12-13T10:16:30.457056", "MEAN_MOTION": 13.86601923, "ECCENTRICITY": 0.01787856, "INCLINATION": 98.0199, "RA_OF_ASC_NODE": 146.9528, "ARG_OF_PERICENTER": 120.9716, "MEAN_ANOMALY": 296.3821, "EPHEMERIS_TYPE": 0, "CLASSIFICATION_TYPE": "U", "NORAD_CAT_ID": 30146, "ELEMENT_SET_NO": 999, "REV_AT_EPOCH": 95427, "BSTAR": 0.00093270342, "MEAN_MOTION_DOT": 1.196e-05, "MEAN_MOTION_DDOT": 0}, "tle": {"line1": "1 30146U 99025TB  25347.42813029  .00001196  00000+0  93270-3 0  9999", "line2": "2 30146  98.0199 146.9528 0178785 120.9716 296.3821 13.86601923954276"}}, "geometry": {"type": "Point", "coordinates": [-29.7682949705826, 17.30778196366161]}}, {"type": "Feature", "properties": {"norad_id": 30148, "name": "FENGYUN 1C DEB", "group": "fengyun-1c-debris", "lat": -17.137500381937127, "lon": -45.31718995400946, "alt_km": 840.3284774719723, "timestamp": "2025-12-14T07:33:19.751769+00:00", "meta": {"OBJECT_NAME": "FENGYUN 1C DEB", "OBJECT_ID": "1999-025TD", "EPOCH": "2025-12-13T16:51:12.174336", "MEAN_MOTION": 13.88491335, "ECCENTRICITY": 0.01349726, "INCLINATION": 99.5443, "RA_OF_ASC_NODE": 137.0299, "ARG_OF_PERICENTER": 194.1212, "MEAN_ANOMALY": 182.5906, "EPHEMERIS_TYPE": 0, "CLASSIFICATION_TYPE": "U", "NORAD_CAT_ID": 30148, "ELEMENT_SET_NO": 999, "REV_AT_EPOCH": 95530, "BSTAR": 0.0013192505, "MEAN_MOTION_DOT": 1.657e-05, "MEAN_MOTION_DDOT": 0}, "tle": {"line1": "1 30148U 99025TD  25347.70222424  .00001657  00000+0  13193-2 0  9992", "line2": "2 30148  99.5443 137.0299 0134972 194.1212 182.5906 13.88491335955307"}}, "geometry": {"type": "Point", "coordinates": [-45.31718995400946, -17.137500381937127]}}, {"type": "Feature", "properties": {"norad_id": 30150, "name": "FENGYUN 1C DEB", "group": "fengyun-1c-debris", "lat": -36.58138201774813, "lon": 130.9961725405373, "alt_km": 840.8490648697425, "timestamp": "2025-12-14T07:33:19.751780+00:00", "meta": {"OBJECT_NAME": "FENGYUN 1C DEB", "OBJECT_ID": "1999-025TF", "EPOCH": "2025-12-13T03:09:35.342784", "MEAN_MOTION": 13.86594439, "ECCENTRICITY": 0.01465033, "INCLINATION": 98.9942, "RA_OF_ASC_NODE": 123.1083, "ARG_OF_PERICENTER": 335.0781, "MEAN_ANOMALY": 205.3661, "EPHEMERIS_TYPE": 0, "CLASSIFICATION_TYPE": "U", "NORAD_CAT_ID": 30150, "ELEMENT_SET_NO": 999, "REV_AT_EPOCH": 95463, "BSTAR": 0.00068681198, "MEAN_MOTION_DOT": 8.25e-06, "MEAN_MOTION_DDOT": 0}, "tle": {"line1": "1 30150U 99025TF  25347.13165906  .00000825  00000+0  68681-3 0  9992", "line2": "2 30150  98.9942 123.1083 0146503 335.0781 205.3661 13.86594439954638"}}, "geometry": {"type": "Point", "coordinates": [130.9961725405373, -36.58138201774813]}}, {"type": "Feature", "properties": {"norad_id": 30151, "name": "FENGYUN 1C DEB", "group": "fengyun-1c-debris", "lat": 65.64067594338596, "lon": -163.12060700741168, "alt_km": 1055.0478426239197, "timestamp": "2025-12-14T07:33:19.751791+00:00", "meta": {"OBJECT_NAME": "FENGYUN 1C DEB", "OBJECT_ID": "1999-025TG", "EPOCH": "2025-12-13T12:31:36.765120", "MEAN_MOTION": 13.84474719, "ECCENTRICITY": 0.01631816, "INCLINATION": 99.0634, "RA_OF_ASC_NODE": 355.4712, "ARG_OF_PERICENTER": 276.6734, "MEAN_ANOMALY": 207.0139, "EPHEMERIS_TYPE": 0, "CLASSIFICATION_TYPE": "U", "NORAD_CAT_ID": 30151, "ELEMENT_SET_NO": 999, "REV_AT_EPOCH": 95256, "BSTAR": 0.00087313276, "MEAN_MOTION_DOT": 1.041e-05, "MEAN_MOTION_DDOT": 0}, "tle": {"line1": "1 30151U 99025TG  25347.52195330  .00001041  00000+0  87313-3 0  9994", "line2": "2 30151  99.0634 355.4712 0163181 276.6734 207.0139 13.84474719952562"}}, "geometry": {"type": "Point", "coordinates": [-163.12060700741168, 65.64067594338596]}}, {"type": "Feature", "properties": {"norad_id": 30152, "name": "FENGYUN 1C DEB", "group": "fengyun-1c-debris", "lat": -55.35531798350621, "lon": -140.57190399403927, "alt_km": 998.1355468781685, "timestamp": "2025-12-14T07:33:19.751801+00:00", "meta": {"OBJECT_NAME": "FENGYUN 1C DEB", "OBJECT_ID": "1999-025TH", "EPOCH": "2025-12-13T12:54:57.061152", "MEAN_MOTION": 13.96693285, "ECCENTRICITY": 0.016208, "INCLINATION": 99.0808, "RA_OF_ASC_NODE": 205.2791, "ARG_OF_PERICENTER": 83.0951, "MEAN_ANOMALY": 278.8619, "EPHEMERIS_TYPE": 0, "CLASSIFICATION_TYPE": "U", "NORAD_CAT_ID": 30152, "ELEMENT_SET_NO": 999, "REV_AT_EPOCH": 95389, "BSTAR": 0.0031036025, "MEAN_MOTION_DOT": 4.769e-05, "MEAN_MOTION_DDOT": 0}, "tle": {"line1": "1 30152U 99025TH  25347.53816043  .00004769  00000+0  31036-2 0  9997", "line2": "2 30152  99.0808 205.2791 0162080  83.0951 278.8619 13.96693285953893"}}, "geometry": {"type": "Point", "coordinates": [-140.57190399403927, -55.35531798350621]}}, {"type": "Feature", "properties": {"norad_id": 30153, "name": "FENGYUN 1C DEB", "group": "fengyun-1c-debris", "lat": -18.556360898951812, "lon": 155.30354412566317, "alt_km": 1113.7497016132638, "timestamp": "2025-12-14T07:33:19.751811+00:00", "meta": {"OBJECT_NAME": "FENGYUN 1C DEB", "OBJECT_ID": "1999-025TJ", "EPOCH": "2025-12-13T12:00:24.057216", "MEAN_MOTION": 13.78774107, "ECCENTRICITY": 0.02007016, "INCLINATION": 100.4668, "RA_OF_ASC_NODE": 337.9627, "ARG_OF_PERICENTER": 3.69, "MEAN_ANOMALY": 114.8244, "EPHEMERIS_TYPE": 0, "CLASSIFICATION_TYPE": "U", "NORAD_CAT_ID": 30153, "ELEMENT_SET_NO": 999, "REV_AT_EPOCH": 94785, "BSTAR": 0.0018906535, "MEAN_MOTION_DOT": 2.182e-05, "MEAN_MOTION_DDOT": 0}, "tle": {"line1": "1 30153U 99025TJ  25347.50027844  .00002182  00000+0  18907-2 0  9997", "line2": "2 30153 100.4668 337.9627 0200701   3.6900 114.8244 13.78774107947856"}}, "geometry": {"type": "Point", "coordinates": [155.30354412566317, -18.556360898951812]}}, {"type": "Feature", "properties": {"norad_id": 30154, "name": "FENGYUN 1C DEB", "group": "fengyun-1c-debris", "lat": 51.34546694019902, "lon": -139.33921236891922, "alt_km": 882.7126898284987, "timestamp": "2025-12-14T07:33:19.751822+00:00", "meta": {"OBJECT_NAME": "FENGYUN 1C DEB", "OBJECT_ID": "1999-025TK", "EPOCH": "2025-12-13T01:37:21.670752", "MEAN_MOTION": 13.85990784, "ECCENTRICITY": 0.01829609, "INCLINATION": 98.4505, "RA_OF_ASC_NODE": 28.8232, "ARG_OF_PERICENTER": 197.8494, "MEAN_ANOMALY": 192.2775, "EPHEMERIS_TYPE": 0, "CLASSIFICATION_TYPE": "U", "NORAD_CAT_ID": 30154, "ELEMENT_SET_NO": 999, "REV_AT_EPOCH": 94989, "BSTAR": 0.0022534734, "MEAN_MOTION_DOT": 2.918e-05, "MEAN_MOTION_DDOT": 0}, "tle": {"line1": "1 30154U 99025TK  25347.06761193  .00002918  00000+0  22535-2 0  9990", "line2": "2 30154  98.4505  28.8232 0182960 197.8494 192.2775 13.85990784949895"}}, "geometry": {"type": "Point", "coordinates": [-139.33921236891922, 51.34546694019902]}}, {"type": "Feature", "properties": {"norad_id": 30155, "name": "FENGYUN 1C DEB", "group": "fengyun-1c-debris", "lat": -77.88221150802357, "lon": 115.08966862070339, "alt_km": 907.5253665574246, "timestamp": "2025-12-14T07:33:19.751832+00:00", "meta": {"OBJECT_NAME": "FENGYUN 1C DEB", "OBJECT_ID": "1999-025TL", "EPOCH": "2025-12-13T10:58:02.422272", "MEAN_MOTION": 13.73805606, "ECCENTRICITY": 0.02419042, "INCLINATION": 99.7515, "RA_OF_ASC_NODE": 60.9961, "ARG_OF_PERICENTER": 341.9307, "MEAN_ANOMALY": 17.3353, "EPHEMERIS_TYPE": 0, "CLASSIFICATION_TYPE": "U", "NORAD_CAT_ID": 30155, "ELEMENT_SET_NO": 999, "REV_AT_EPOCH": 93874, "BSTAR": 0.0025363363, "MEAN_MOTION_DOT": 2.884e-05, "MEAN_MOTION_DDOT": 0}, "tle": {"line1": "1 30155U 99025TL  25347.45697248  .00002884  00000+0  25363-2 0  9997", "line2": "2 30155  99.7515  60.9961 0241904 341.9307  17.3353 13.73805606938742"}}, "geometry": {"type": "Point", "coordinates": [115.08966862070339, -77.88221150802357]}}, {"type": "Feature", "properties": {"norad_id": 30156, "name": "FENGYUN 1C DEB", "group": "fengyun-1c-debris", "lat": -31.12326511875559, "lon": 129.78652652497203, "alt_km": 865.9982826122123, "timestamp": "2025-12-14T07:33:19.751842+00:00", "meta": {"OBJECT_NAME": "FENGYUN 1C DEB", "OBJECT_ID": "1999-025TM", "EPOCH": "2025-12-12T21:45:05.908896", "MEAN_MOTION": 13.80814171, "ECCENTRICITY": 0.01993311, "INCLINATION": 98.9186, "RA_OF_ASC_NODE": 313.8965, "ARG_OF_PERICENTER": 262.4542, "MEAN_ANOMALY": 152.886, "EPHEMERIS_TYPE": 0, "CLASSIFICATION_TYPE": "U", "NORAD_CAT_ID": 30156, "ELEMENT_SET_NO": 999, "REV_AT_EPOCH": 94693, "BSTAR": 0.0022008619, "MEAN_MOTION_DOT": 2.651e-05, "MEAN_MOTION_DDOT": 0}, "tle": {"line1": "1 30156U 99025TM  25346.90631839  .00002651  00000+0  22009-2 0  9997", "line2": "2 30156  98.9186 313.8965 0199331 262.4542 152.8860 13.80814171946939"}}, "geometry": {"type": "Point", "coordinates": [129.78652652497203, -31.12326511875559]}}, {"type": "Feature", "properties": {"norad_id": 30157, "name": "FENGYUN 1C DEB", "group": "fengyun-1c-debris", "lat": 45.08201644137177, "lon": -85.76330178714817, "alt_km": 722.1774713082914, "timestamp": "2025-12-14T07:33:19.751857+00:00", "meta": {"OBJECT_NAME": "FENGYUN 1C DEB", "OBJECT_ID": "1999-025TN", "EPOCH": "2025-12-13T06:08:00.892032", "MEAN_MOTION": 14.45116348, "ECCENTRICITY": 0.00370865, "INCLINATION": 98.7142, "RA_OF_ASC_NODE": 84.3022, "ARG_OF_PERICENTER": 191.6221, "MEAN_ANOMALY": 195.3703, "EPHEMERIS_TYPE": 0, "CLASSIFICATION_TYPE": "U", "NORAD_CAT_ID": 30157, "ELEMENT_SET_NO": 999, "REV_AT_EPOCH": 98080, "BSTAR": 0.0037578088, "MEAN_MOTION_DOT": 0.00013232, "MEAN_MOTION_DDOT": 0}, "tle": {"line1": "1 30157U 99025TN  25347.25556588  .00013232  00000+0  37578-2 0  9998", "line2": "2 30157  98.7142  84.3022 0037086 191.6221 195.3703 14.45116348980804"}}, "geometry": {"type": "Point", "coordinates": [-85.76330178714817, 45.08201644137177]}}]}